{
    "links": {
        "self": "http://www.neowsapp.com/rest/v1/neo/3667432?api_key=iIulBulltgU6a56xZRHN4H3l9WmuAYTsLGpBGhQ2"
    },
    "id": "3667432",
    "neo_reference_id": "3667432",
    "name": "(2014 GQ45)",
    "designation": "2014 GQ45",
    "nasa_jpl_url": "http://ssd.jpl.nasa.gov/sbdb.cgi?sstr=3667432",
    "absolute_magnitude_h": 25.5,
    "estimated_diameter": {
        "kilometers": {
            "estimated_diameter_min": 0.0211132445,
            "estimated_diameter_max": 0.0472106499
        },
        "meters": {
            "estimated_diameter_min": 21.113244479,
            "estimated_diameter_max": 47.2106498806
        },
        "miles": {
            "estimated_diameter_min": 0.0131191578,
            "estimated_diameter_max": 0.0293353287
        },
        "feet": {
            "estimated_diameter_min": 69.2691770164,
            "estimated_diameter_max": 154.8905885541
        }
    },
    "is_potentially_hazardous_asteroid": false,
    "close_approach_data": [
        {
            "close_approach_date": "2011-02-24",
            "close_approach_date_full": "2011-Feb-24 16:36",
            "epoch_date_close_approach": 1298565360000,
            "relative_velocity": {
                "kilometers_per_second": "17.0615747094",
                "kilometers_per_hour": "61421.6689537518",
                "miles_per_hour": "38165.0364674021"
            },
            "miss_distance": {
                "astronomical": "0.3286644306",
                "lunar": "127.8504635034",
                "kilometers": "49167498.762522822",
                "miles": "30551267.0499540636"
            },
            "orbiting_body": "Earth"
        },
        {
            "close_approach_date": "2014-04-10",
            "close_approach_date_full": "2014-Apr-10 12:35",
            "epoch_date_close_approach": 1397133300000,
            "relative_velocity": {
                "kilometers_per_second": "7.6406520493",
                "kilometers_per_hour": "27506.3473773775",
                "miles_per_hour": "17091.3745690155"
            },
            "miss_distance": {
                "astronomical": "0.021069108",
                "lunar": "8.195883012",
                "kilometers": "3151893.67959996",
                "miles": "1958495.915841048"
            },
            "orbiting_body": "Earth"
        },
        {
            "close_approach_date": "2017-06-04",
            "close_approach_date_full": "2017-Jun-04 16:04",
            "epoch_date_close_approach": 1496592240000,
            "relative_velocity": {
                "kilometers_per_second": "17.6342310047",
                "kilometers_per_hour": "63483.2316167839",
                "miles_per_hour": "39446.0113343289"
            },
            "miss_distance": {
                "astronomical": "0.3627560547",
                "lunar": "141.1121052783",
                "kilometers": "54267533.112723489",
                "miles": "33720281.4460185882"
            },
            "orbiting_body": "Earth"
        }
    ],
    "orbital_data": {
        "orbit_id": "11",
        "orbit_determination_date": "2017-04-06 08:41:37",
        "first_observation_date": "2014-04-09",
        "last_observation_date": "2014-04-17",
        "data_arc_in_days": 8,
        "observations_used": 396,
        "orbit_uncertainty": "7",
        "minimum_orbit_intersection": ".0189429",
        "jupiter_tisserand_invariant": "3.547",
        "epoch_osculation": "2459000.5",
        "eccentricity": ".5179662882258627",
        "semi_major_axis": "2.111777664939985",
        "inclination": "6.45430561184759",
        "ascending_node_longitude": "193.8467625164233",
        "orbital_period": "1120.909926783698",
        "perihelion_distance": "1.017948026272741",
        "perihelion_argument": "7.665704506060178",
        "aphelion_distance": "3.205607303607228",
        "perihelion_time": "2459000.709024056794",
        "mean_anomaly": "359.9328682362",
        "mean_motion": ".3211676437133286",
        "equinox": "J2000",
        "orbit_class": {
            "orbit_class_type": "AMO",
            "orbit_class_description": "Near-Earth asteroid orbits similar to that of 1221 Amor",
            "orbit_class_range": "1.017 AU < q (perihelion) < 1.3 AU"
        }
    },
    "is_sentry_object": false
}